PANDORA
1 67395U 80229J   26077.84299769  .00000000  00000-0  37770-3 0    07
2 67395  97.8040  77.9155 0006718  74.3449 201.3267 14.87893107    06
